{
  "norad_id": 46705,
  "name": "STARLINK-1805",
  "history": [
    {
      "epoch": "2026-03-28T20:50:43.977120Z",
      "apogee_km": 404.56927198316316,
      "perigee_km": 396.9205239600442,
      "latitude_deg": 2.9008769502135108e-05,
      "longitude_deg": 12.074551498483443,
      "height_km": 397.9622412012796,
      "semi_major_axis_km": 6778.881897971603,
      "eccentricity": 0.00056416,
      "inclination_deg": 53.0501,
      "raan_deg": 151.0406,
      "arg_perigee_deg": 344.3163,
      "mean_anomaly_deg": 15.7672,
      "mean_motion_rev_day": 15.55484402
    }
  ]
}